- !!map
  id:                 41
  name:               Peabody
  radius:             68200
  mass:               47838961272642820000
  stdGravParam:       3192915792.22
  soi:                914561.8673020484
  orbit:
    semiMajorAxis:    11131040
    eccentricity:     0.34
    inclination:      6
    argOfPeriapsis:   0
    ascNodeLongitude: 10
  meanAnomaly0:       0
  epoch:              0
  orbiting:           40
  color:              0xc2a27

- !!map
  id:                 42
  name:               Dudley
  radius:             144200
  mass:               549943379037202350000
  stdGravParam:       36704870947.079994
  soi:                5484061.31875548
  orbit:
    semiMajorAxis:    25131040
    eccentricity:     0.06
    inclination:      13
    argOfPeriapsis:   80
    ascNodeLongitude: 210
  meanAnomaly0:       0
  epoch:              0
  orbiting:           40
  color:              0x3b352b

- !!map
  id:                 43
  name:               Brag
  radius:             111200
  atmosphereAlt:      24500.0
  mass:               279798413243396330000
  stdGravParam:       18674585495.104
  soi:                4185171.024650715
  orbit:
    semiMajorAxis:    25131040
    eccentricity:     0.15
    inclination:      4
    argOfPeriapsis:   0
    ascNodeLongitude: 210
  meanAnomaly0:       0
  epoch:              0
  orbiting:           40
  color:              0x86793f

- !!map
  id:                 44
  name:               Sye
  radius:             420000
  mass:               1.7883916087080295e+22
  stdGravParam:       1193626211400
  soi:                30092621.059579384
  orbit:
    semiMajorAxis:    7760284194
    eccentricity:     0
    inclination:      1
    argOfPeriapsis:   0
    ascNodeLongitude: 60
  meanAnomaly0:       0
  epoch:              0
  orbiting:           0
  color:              0xNaN

- !!map
  id:                 45
  name:               Wertz
  radius:             25420
  mass:               6551113670664191000
  stdGravParam:       437240979.7211401
  soi:                232342.13140762397
  orbit:
    semiMajorAxis:    5502841
    eccentricity:     0.001
    inclination:      1
    argOfPeriapsis:   0
    ascNodeLongitude: 0
  meanAnomaly0:       0
  epoch:              0
  orbiting:           44
  color:              0xNaN

- !!map
  id:                 46
  name:               Eve
  radius:             700000
  atmosphereAlt:      90000
  mass:               1.224357644878245e+23
  stdGravParam:       8171730229210.87
  soi:                85109364.7382441
  orbit:
    semiMajorAxis:    9832684544
    eccentricity:     0.00999999977648258
    inclination:      2.09999990463257
    argOfPeriapsis:   0
    ascNodeLongitude: 15
  meanAnomaly0:       3.14000010490417
  epoch:              0
  orbiting:           0
  color:              0x6c20e4

- !!map
  id:                 47
  name:               Aden
  radius:             120000
  mass:               222160448286711740000
  stdGravParam:       14827654800
  soi:                592563.7745390254
  orbit:
    semiMajorAxis:    7400000
    eccentricity:     0.05
    inclination:      2.3
    argOfPeriapsis:   240
    ascNodeLongitude: 180
  meanAnomaly0:       20
  epoch:              0
  orbiting:           46
  color:              0x423c17

- !!map
  id:                 48
  name:               Driea
  radius:             30000
  mass:               5289534483016946000
  stdGravParam:       353039400
  soi:                161601.79171687702
  orbit:
    semiMajorAxis:    9000000
    eccentricity:     0.1
    inclination:      8
    argOfPeriapsis:   8
    ascNodeLongitude: 21
  meanAnomaly0:       88
  epoch:              3
  orbiting:           46
  color:              0xNaN

- !!map
  id:                 49
  name:               Scarab
  radius:             240000
  atmosphereAlt:      40000
  mass:               3.385302069130846e+21
  stdGravParam:       225945216000
  soi:                2469381.5203924067
  orbit:
    semiMajorAxis:    10373195
    eccentricity:     0.1
    inclination:      10
    argOfPeriapsis:   0
    ascNodeLongitude: 60
  meanAnomaly0:       2.047
  epoch:              125000
  orbiting:           46
  color:              0x6f588e

- !!map
  id:                 50
  name:               Neith
  radius:             32000
  mass:               3310073134261271000
  stdGravParam:       220924211.2
  soi:                186072.3016932025
  orbit:
    semiMajorAxis:    12500000
    eccentricity:     0
    inclination:      3.2
    argOfPeriapsis:   20
    ascNodeLongitude: 190
  meanAnomaly0:       287
  epoch:              0
  orbiting:           46
  color:              0x514251

- !!map
  id:                 51
  name:               Vurn
  radius:             6000
  mass:               21158137932067784
  stdGravParam:       1412157.5999999999
  soi:                59176.45070257815
  orbit:
    semiMajorAxis:    30000000
    eccentricity:     0.045
    inclination:      10
    argOfPeriapsis:   0
    ascNodeLongitude: 330
  meanAnomaly0:       2.047
  epoch:              125000
  orbiting:           46
  color:              0x272728

- !!map
  id:                 52
  name:               Gilly
  radius:             13000
  mass:               124199538748877810
  stdGravParam:       8289449.81471635
  soi:                126123.271704568
  orbit:
    semiMajorAxis:    31500000
    eccentricity:     0.12
    inclination:      4.2
    argOfPeriapsis:   10
    ascNodeLongitude: 80
  meanAnomaly0:       0.899999976158142
  epoch:              0
  orbiting:           46
  color:              0xa27d6e

- !!map
  id:                 53
  name:               Kely
  radius:             1863
  mass:               30597920513477.07
  stdGravParam:       2042.197008831
  soi:                2406.7382080977973
  orbit:
    semiMajorAxis:    66803.6329271611
    eccentricity:     0.0805801598625652
    inclination:      0.1
    argOfPeriapsis:   15
    ascNodeLongitude: 170.226609706879
  meanAnomaly0:       3.14
  epoch:              0
  orbiting:           52
  color:              0xNaN

- !!map
  id:                 54
  name:               Faz
  radius:             40000
  mass:               42316275864135565000
  stdGravParam:       2824315200
  soi:                1299421.9861682507
  orbit:
    semiMajorAxis:    31500000
    eccentricity:     0.22
    inclination:      10.3
    argOfPeriapsis:   0
    ascNodeLongitude: 80
  meanAnomaly0:       1.1
  epoch:              200000
  orbiting:           46
  color:              0x684982

- !!map
  id:                 55
  name:               Diren
  radius:             396000
  atmosphereAlt:      90000.0
  mass:               1.612884854561527e+22
  stdGravParam:       1076487738479.9999
  soi:                2000000
  orbit:
    semiMajorAxis:    43900000
    eccentricity:     0.07
    inclination:      1
    argOfPeriapsis:   0
    ascNodeLongitude: 0
  meanAnomaly0:       0
  epoch:              0.6
  orbiting:           46
  color:              0xcc7fe5

- !!map
  id:                 56
  name:               Niven
  radius:             400000
  atmosphereAlt:      65000
  mass:               1.1754521073370991e+22
  stdGravParam:       784532000000
  soi:                34386218.42354946
  orbit:
    semiMajorAxis:    10488300000
    eccentricity:     0.03
    inclination:      1
    argOfPeriapsis:   0
    ascNodeLongitude: 60
  meanAnomaly0:       3.25
  epoch:              0
  orbiting:           0
  color:              0xffcc3f

- !!map
  id:                 57
  name:               Ghekta
  radius:             483267
  atmosphereAlt:      97000
  mass:               2.4020789224582358e+22
  stdGravParam:       1603219535216.3
  soi:                47477440.45598765
  orbit:
    semiMajorAxis:    10880655198
    eccentricity:     0.02
    inclination:      -1.2
    argOfPeriapsis:   10
    ascNodeLongitude: 34
  meanAnomaly0:       2.3
  epoch:              0
  orbiting:           0
  color:              0x61c2d0

- !!map
  id:                 58
  name:               Aeternum
  radius:             6928
  mass:               20451666766154350
  stdGravParam:       1365005.5949734398
  soi:                17000
  orbit:
    semiMajorAxis:    1886713
    eccentricity:     0.01
    inclination:      3
    argOfPeriapsis:   0
    ascNodeLongitude: 0
  meanAnomaly0:       0
  epoch:              10.9
  orbiting:           57
  color:              0xNaN

- !!map
  id:                 59
  name:               Pytha
  radius:             55000
  mass:               31112747966078845000
  stdGravParam:       2076558137.5000002
  soi:                514748.14974489395
  orbit:
    semiMajorAxis:    7356214
    eccentricity:     0.12
    inclination:      3
    argOfPeriapsis:   0
    ascNodeLongitude: 0
  meanAnomaly0:       0
  epoch:              10.9
  orbiting:           57
  color:              0xe4c8ae

- !!map
  id:                 60
  name:               Kolyphemus
  radius:             4000000
  atmosphereAlt:      200000
  mass:               2.1158137932067784e+24
  stdGravParam:       141215760000000
  soi:                303557052.2999443
  orbit:
    semiMajorAxis:    11599840256
    eccentricity:     0
    inclination:      3
    argOfPeriapsis:   0
    ascNodeLongitude: 90
  meanAnomaly0:       0
  epoch:              0
  orbiting:           0
  color:              0x2bcce5

- !!map
  id:                 61
  name:               Kalatea
  radius:             30000
  mass:               44180836769399040
  stdGravParam:       2948761.5884999996
  soi:                150000
  orbit:
    semiMajorAxis:    4930000
    eccentricity:     0
    inclination:      0
    argOfPeriapsis:   0
    ascNodeLongitude: 10
  meanAnomaly0:       0
  epoch:              0
  orbiting:           60
  color:              0xe5e5cc

